     2.100          NAVIGATION                              RINEX VERSION / TYPE
fic2rin                                 03/10/2011 01:24:56 PGM / RUN BY / DATE
                                                            END OF HEADER
22 11  3  9 11 59 44.0  .152122229338D-03 -.568434188608D-12  .000000000000D+00
     .300000000000D+01  .858437500000D+02  .539522473277D-08 -.240468216969D+00
     .451318919659D-05  .539679825306D-02  .475905835629D-05  .515371284294D+04
     .302384000000D+06 -.204890966415D-07  .157985387875D+01  .577419996262D-07
     .931276884220D+00  .271250000000D+03 -.196244252733D+01 -.871214861025D-08
     .114647632677D-09  .100000000000D+01  .162600000000D+04  .000000000000D+00
     .240000000000D+01  .000000000000D+00 -.172294676304D-07  .300000000000D+01
     .295206000000D+06  .400000000000D+01
 1 11  3  9 12  0  0.0 -.214091967791D-03 -.284217094304D-11  .000000000000D+00
     .440000000000D+02  .178750000000D+02  .454697511405D-08 -.231936279774D+00
     .974163413048D-06  .453544501215D-02  .685453414917D-05  .515357260704D+04
     .302400000000D+06 -.372529029846D-08 -.158487174628D+01  .651925802231D-07
     .967755175162D+00  .251156250000D+03  .869633322873D+00 -.814462497061D-08
     .463590738987D-09  .100000000000D+01  .162600000000D+04  .000000000000D+00
     .240000000000D+01  .630000000000D+02 -.195577740669D-07  .440000000000D+02
     .295206000000D+06  .400000000000D+01
 2 11  3  9 12  0  0.0  .324267428368D-03  .193267624127D-11  .000000000000D+00
     .610000000000D+02  .912500000000D+01  .486341686655D-08 -.198828617333D+01
     .480562448502D-06  .100858005462D-01  .111237168312D-04  .515372738647D+04
     .302400000000D+06 -.372529029846D-07  .494287003849D+00 -.178813934326D-06
     .939567287789D+00  .152968750000D+03 -.306243095838D+01 -.806962184643D-08
    -.100361323309D-09  .100000000000D+01  .162600000000D+04  .000000000000D+00
     .240000000000D+01  .000000000000D+00 -.172294676304D-07  .610000000000D+02
     .295206000000D+06  .400000000000D+01
 3 11  3  9 12  0  0.0  .686040613800D-03  .511590769747D-11  .000000000000D+00
     .780000000000D+02 -.365937500000D+02  .556023160596D-08 -.199432332318D+01
    -.193156301975D-05  .139983104309D-01  .505149364471D-05  .515364030838D+04
     .302400000000D+06  .206753611565D-06 -.662024345251D+00 -.558793544769D-07
     .928479344514D+00  .259375000000D+03  .107602765717D+01 -.837927760197D-08
    -.328585115460D-10  .100000000000D+01  .162600000000D+04  .000000000000D+00
     .340000000000D+01  .000000000000D+00 -.419095158577D-08  .780000000000D+02
     .295206000000D+06  .400000000000D+01
 4 11  3  9 12  0  0.0  .558597967029D-04  .103455022327D-10  .000000000000D+00
     .410000000000D+02  .138750000000D+02  .494377735674D-08  .104973587547D+01
     .102631747723D-05  .959250144660D-02  .111870467663D-04  .515361465073D+04
     .302400000000D+06 -.124797224998D-06  .511767021379D+00  .726431608200D-07
     .938655929324D+00  .154250000000D+03  .713775404388D+00 -.822355682986D-08
    -.337156901081D-09  .100000000000D+01  .162600000000D+04  .000000000000D+00
     .240000000000D+01  .000000000000D+00 -.605359673500D-08  .410000000000D+02
     .295206000000D+06  .400000000000D+01
 5 11  3  9 12  0  0.0 -.126332975924D-03 -.591171556152D-11  .000000000000D+00
     .450000000000D+02  .824375000000D+02  .474841207614D-08 -.256039515542D+00
     .425428152084D-05  .225185137242D-02  .576488673687D-05  .515362894249D+04
     .302400000000D+06  .167638063431D-07  .155577720373D+01  .186264514923D-08
     .954711826825D+00  .264000000000D+03  .284174145382D+00 -.828820237975D-08
     .125362364703D-09  .100000000000D+01  .162600000000D+04  .000000000000D+00
     .240000000000D+01  .000000000000D+00 -.977888703346D-08  .450000000000D+02
     .295206000000D+06  .400000000000D+01
 6 11  3  9 12  0  0.0  .214627943933D-04 -.133127286972D-09  .000000000000D+00
     .160000000000D+03 -.398750000000D+02  .550665794584D-08  .902036545786D-01
    -.218302011490D-05  .654784147628D-02  .602006912231D-05  .515364438820D+04
     .302400000000D+06  .558793544769D-08 -.589032953233D+00 -.109896063805D-06
     .935707872903D+00  .252093750000D+03 -.850084686514D+00 -.860464413225D-08
    -.205365697163D-09  .100000000000D+01  .162600000000D+04  .000000000000D+00
     .340000000000D+01  .000000000000D+00 -.465661287308D-08  .160000000000D+03
     .295206000000D+06  .400000000000D+01
 7 11  3  9 12  0  0.0  .521633774042D-05  .909494701773D-12  .000000000000D+00
     .720000000000D+02 -.600937500000D+02  .392837791842D-08  .261349424237D+01
    -.302121043205D-05  .419652333949D-02  .987201929092D-05  .515367708588D+04
     .302400000000D+06 -.596046447754D-07 -.262331165884D+01  .149011611938D-07
     .974242584863D+00  .196062500000D+03 -.310655669162D+01 -.772889336800D-08
     .460733477113D-10  .100000000000D+01  .162600000000D+04  .000000000000D+00
     .240000000000D+01  .000000000000D+00 -.107102096081D-07  .720000000000D+02
     .295206000000D+06  .400000000000D+01
 8 11  3  9 12  0  0.0  .753020867705D-05  .113686837722D-12  .000000000000D+00
     .670000000000D+02 -.509062500000D+02  .345050087007D-08  .208485916403D+01
    -.248849391937D-05  .114445483778D-01  .104531645775D-04  .515361578941D+04
     .302400000000D+06 -.111758708954D-06 -.254948693895D+01  .156462192535D-06
     .995841563815D+00  .197531250000D+03 -.308440848348D+01 -.748209737367D-08
     .178578867098D-11  .100000000000D+01  .162600000000D+04  .000000000000D+00
     .340000000000D+01  .000000000000D+00 -.465661287308D-08  .670000000000D+02
     .295206000000D+06  .400000000000D+01
 9 11  3  9 12  0  0.0  .665117986500D-04  .238742359215D-11  .000000000000D+00
     .570000000000D+02 -.468125000000D+02  .362622247529D-08  .194690606377D+01
    -.258535146713D-05  .170656205155D-01  .969879329205D-05  .515368315125D+04
     .302400000000D+06  .273808836937D-06 -.265233426825D+01 -.262632966042D-06
     .983214361545D+00  .202468750000D+03  .155733184531D+01 -.747209695712D-08
     .717887045734D-10  .100000000000D+01  .162600000000D+04  .000000000000D+00
     .340000000000D+01  .000000000000D+00 -.558793544769D-08  .570000000000D+02
     .295206000000D+06  .400000000000D+01
10 11  3  9 12  0  0.0 -.683399848640D-04 -.102318153949D-11  .000000000000D+00
     .970000000000D+02  .793750000000D+02  .499449375500D-08  .147938410000D-01
     .429712235928D-05  .100927294698D-01  .548735260963D-05  .515358205032D+04
     .302400000000D+06  .260770320892D-07  .157992606937D+01  .115483999252D-06
     .949665689868D+00  .264750000000D+03  .701918704977D+00 -.853106963901D-08
     .118576367753D-09  .100000000000D+01  .162600000000D+04  .000000000000D+00
     .340000000000D+01  .000000000000D+00 -.279396772385D-08  .970000000000D+02
     .295206000000D+06  .400000000000D+01
11 11  3  9 12  0  0.0 -.133052002639D-03 -.306954461848D-11  .000000000000D+00
     .660000000000D+02 -.161250000000D+02  .606418116892D-08  .272060805083D+01
    -.933185219765D-06  .116462308215D-01  .102333724499D-04  .515350232315D+04
     .302400000000D+06  .204890966415D-07  .261178293250D+00 -.189989805222D-06
     .888477515901D+00  .140687500000D+03  .914921957486D+00 -.846106672311D-08
    -.343585740297D-09  .100000000000D+01  .162600000000D+04  .000000000000D+00
     .240000000000D+01  .000000000000D+00 -.116415321827D-07  .660000000000D+02
     .295206000000D+06  .400000000000D+01
12 11  3  9 12  0  0.0 -.206949189305D-04  .284217094304D-11  .000000000000D+00
     .700000000000D+02  .205000000000D+02  .434089510142D-08  .267857688712D+01
     .103376805782D-05  .367327546701D-02  .679679214954D-05  .515378916740D+04
     .302400000000D+06 -.763684511185D-07 -.156863618488D+01  .763684511185D-07
     .973883204407D+00  .252343750000D+03 -.268379150543D+00 -.796140305296D-08
     .461447792581D-09  .100000000000D+01  .162600000000D+04  .000000000000D+00
     .240000000000D+01  .000000000000D+00 -.121071934700D-07  .700000000000D+02
     .295206000000D+06  .400000000000D+01
13 11  3  9 12  0  0.0  .279719941318D-03 -.136424205266D-11  .000000000000D+00
     .800000000000D+02 -.423125000000D+02  .402945355720D-08 -.115018317356D+01
    -.219605863094D-05  .457885593642D-02  .443123281002D-05  .515363038635D+04
     .302400000000D+06 -.707805156708D-07  .268424210761D+01  .726431608200D-07
     .990515752031D+00  .311218750000D+03  .179229170026D+01 -.805390690612D-08
    -.254653464482D-09  .100000000000D+01  .162600000000D+04  .000000000000D+00
     .240000000000D+01  .000000000000D+00 -.111758708954D-07  .800000000000D+02
     .295206000000D+06  .400000000000D+01
14 11  3  9 12  0  0.0  .136369373649D-03  .250111042988D-11  .000000000000D+00
     .700000000000D+02 -.497812500000D+02  .417053086221D-08 -.117926855679D+01
    -.254996120930D-05  .561276928056D-02  .455975532532D-05  .515363785553D+04
     .302400000000D+06  .838190317154D-07  .266057120802D+01  .968575477600D-07
     .983579732650D+00  .304906250000D+03 -.208667232518D+01 -.808712257540D-08
    -.328942273195D-09  .100000000000D+01  .162600000000D+04  .000000000000D+00
     .240000000000D+01  .000000000000D+00 -.884756445885D-08  .700000000000D+02
     .295206000000D+06  .400000000000D+01
15 11  3  9 12  0  0.0 -.144894700497D-03  .329691829393D-11  .000000000000D+00
     .440000000000D+02 -.409375000000D+02  .482627246219D-08 -.156003402031D+01
    -.216998159885D-05  .337509438396D-02  .387988984585D-05  .515358195496D+04
     .302400000000D+06 -.167638063431D-07  .258735018614D+01 -.298023223877D-07
     .950779552768D+00  .300781250000D+03 -.892750804940D-01 -.840570727430D-08
    -.205365697163D-09  .100000000000D+01  .162600000000D+04  .000000000000D+00
     .240000000000D+01  .000000000000D+00 -.977888703346D-08  .440000000000D+02
     .295206000000D+06  .400000000000D+01
